     2.100          NAVIGATION                              RINEX VERSION / TYPE
fic2rin                                 02/12/2018 00:06:58 PGM / RUN BY / DATE
                                                            END OF HEADER
19 18  2 12  0  0  0.0 -.457685906440D-03  .250111042988D-11  .000000000000D+00
     .900000000000D+02 -.413437500000D+02  .429589322691D-08 -.207040573968D+01
    -.205077230930D-05  .972005003132D-02  .216439366341D-05  .515370082664D+04
     .864000000000D+05  .106170773506D-06 -.182394992482D+01  .353902578354D-07
     .979184559127D+00  .344906250000D+03  .112322798339D+01 -.809605151876D-08
    -.685742849656D-10  .100000000000D+01  .198800000000D+04  .000000000000D+00
     .240000000000D+01  .000000000000D+00 -.153668224812D-07  .900000000000D+02
     .792060000000D+05  .400000000000D+01
20 18  2 12  0  0  0.0  .500670168549D-03  .909494701773D-12  .000000000000D+00
     .130000000000D+02 -.127187500000D+02  .508271171534D-08  .119423990534D+00
    -.590458512306D-06  .446353969164D-02  .968761742115D-05  .515378340530D+04
     .864000000000D+05 -.689178705215D-07  .689547314413D-01 -.102445483208D-06
     .928367287915D+00  .178937500000D+03  .178897873794D+01 -.823069998455D-08
     .427160650099D-09  .100000000000D+01  .198800000000D+04  .000000000000D+00
     .240000000000D+01  .000000000000D+00 -.838190317154D-08  .130000000000D+02
     .792060000000D+05  .400000000000D+01
21 18  2 12  0  0  0.0 -.431448221207D-03  .432009983342D-11  .000000000000D+00
     .310000000000D+02 -.118218750000D+03  .447732935588D-08 -.263204460976D+01
    -.603869557381D-05  .244165282929D-01  .733323395252D-05  .515377350426D+04
     .864000000000D+05  .277534127235D-06 -.918815032654D+00  .931322574615D-07
     .942694547286D+00  .220656250000D+03 -.159605238005D+01 -.769246327912D-08
    -.692886004340D-10  .100000000000D+01  .198800000000D+04  .000000000000D+00
     .240000000000D+01  .000000000000D+00 -.102445483208D-07  .310000000000D+02
     .792060000000D+05  .400000000000D+01
22 18  2 12  0  0  0.0 -.288465525955D-03 -.129602995003D-10  .000000000000D+00
     .240000000000D+02  .150000000000D+01  .525271879682D-08  .629241032815D+00
     .111758708954D-06  .728042924311D-02  .969693064690D-05  .515359428787D+04
     .864000000000D+05 -.117346644402D-06  .119269270855D+00 -.838190317154D-07
     .925063928191D+00  .177656250000D+03 -.161521664931D+01 -.841392190219D-08
     .348943106310D-09  .100000000000D+01  .198800000000D+04  .000000000000D+00
     .240000000000D+01  .000000000000D+00 -.176951289177D-07  .240000000000D+02
     .792060000000D+05  .400000000000D+01
23 18  2 12  0  0  0.0 -.218970701098D-03  .113686837722D-12  .000000000000D+00
     .230000000000D+02  .187500000000D+01  .530343519508D-08 -.577870722978D-01
     .219792127609D-06  .119702331722D-01  .539794564247D-05  .515358927155D+04
     .864000000000D+05  .130385160446D-07  .120864963526D+01  .175088644028D-06
     .943401125015D+00  .267375000000D+03 -.239762375527D+01 -.858500045687D-08
     .285726187357D-11  .100000000000D+01  .198800000000D+04  .000000000000D+00
     .240000000000D+01  .000000000000D+00 -.200234353542D-07  .230000000000D+02
     .792060000000D+05  .400000000000D+01
24 18  2 12  0  0  0.0 -.459398142993D-04 -.454747350886D-12  .000000000000D+00
     .680000000000D+02  .125312500000D+02  .496984987134D-08 -.645349533924D+00
     .694766640663D-06  .680312432814D-02  .965781509876D-05  .515365749931D+04
     .864000000000D+05  .968575477600D-07  .222980667752D+01  .409781932831D-07
     .942503166880D+00  .183687500000D+03  .522158943342D+00 -.819426989566D-08
    -.405374028313D-09  .100000000000D+01  .198800000000D+04  .000000000000D+00
     .240000000000D+01  .000000000000D+00  .279396772385D-08  .680000000000D+02
     .792060000000D+05  .400000000000D+01
25 18  2 12  0  0  0.0 -.537273474038D-03 -.613908923697D-11  .000000000000D+00
     .690000000000D+02  .105218750000D+03  .413802950840D-08 -.260840012901D+01
     .537186861038D-05  .716415676288D-02  .759959220886D-05  .515369182205D+04
     .864000000000D+05  .968575477600D-07 -.296418426505D+01 -.160187482834D-06
     .975520002004D+00  .239125000000D+03  .809354162312D+00 -.786175604512D-08
     .232152527227D-09  .100000000000D+01  .198800000000D+04  .000000000000D+00
     .240000000000D+01  .000000000000D+00  .558793544769D-08  .690000000000D+02
     .792060000000D+05  .400000000000D+01
26 18  2 12  0  0  0.0 -.253831036389D-03  .136424205266D-10  .000000000000D+00
     .210000000000D+02  .100937500000D+03  .459947730098D-08 -.310942305869D+01
     .530295073986D-05  .267541734502D-02  .767409801483D-05  .515361255074D+04
     .864000000000D+05 -.106170773506D-06 -.298423974986D+01 -.111758708954D-07
     .957118564059D+00  .230500000000D+03  .133160274889D-01 -.805212111745D-08
     .150363406097D-09  .100000000000D+01  .198800000000D+04  .000000000000D+00
     .240000000000D+01  .000000000000D+00  .745058059692D-08  .210000000000D+02
     .792060000000D+05  .400000000000D+01
27 18  2 12  0  0  0.0  .366758089513D-03  .136424205266D-11  .000000000000D+00
     .960000000000D+02 -.965625000000D+01  .444768526394D-08  .135321328343D+01
    -.337138772011D-06  .548103859182D-02  .209920108318D-05  .515367957306D+04
     .864000000000D+05  .484287738800D-07 -.192467886975D+01  .819563865662D-07
     .976559637903D+00  .346187500000D+03  .355016303008D+00 -.831498920982D-08
    -.128219626576D-09  .100000000000D+01  .198800000000D+04  .000000000000D+00
     .240000000000D+01  .000000000000D+00  .186264514923D-08  .960000000000D+02
     .792060000000D+05  .400000000000D+01
28 18  2 12  0  0  0.0  .687964726239D-03  .341060513165D-11  .000000000000D+00
     .210000000000D+02  .983125000000D+02  .384051711581D-08  .216945808248D+01
     .490248203278D-05  .197464262601D-01  .598840415478D-05  .515367472649D+04
     .864000000000D+05  .318512320518D-06 -.288255059524D+01 -.126659870148D-06
     .987078071558D+00  .271625000000D+03 -.152619444883D+01 -.750066957585D-08
     .971469037013D-10  .100000000000D+01  .198800000000D+04  .000000000000D+00
     .240000000000D+01  .000000000000D+00 -.111758708954D-07  .210000000000D+02
     .792060000000D+05  .400000000000D+01
29 18  2 12  0  0  0.0  .497737899423D-03 -.568434188608D-11  .000000000000D+00
     .640000000000D+02 -.227812500000D+02  .422696178421D-08  .269229306952D+01
    -.132992863655D-05  .497609842569D-03  .200793147087D-05  .515373856735D+04
     .864000000000D+05 -.372529029846D-07 -.186073188245D+01  .223517417908D-07
     .982984494690D+00  .350031250000D+03  .752647883651D+00 -.818569811004D-08
    -.151434879299D-09  .100000000000D+01  .198800000000D+04  .000000000000D+00
     .340000000000D+01  .000000000000D+00 -.102445483208D-07  .640000000000D+02
     .792060000000D+05  .400000000000D+01
30 18  2 12  0  0  0.0  .104392413050D-03 -.341060513165D-11  .000000000000D+00
     .130000000000D+02  .248437500000D+02  .480912889095D-08 -.141211794321D+01
     .109151005745D-05  .307933916338D-02  .946968793869D-05  .515357223892D+04
     .864000000000D+05  .428408384323D-07  .232285325591D+01 -.279396772385D-07
     .945162046822D+00  .188687500000D+03 -.311452208453D+01 -.804676375144D-08
    -.293226499775D-09  .100000000000D+01  .198800000000D+04  .000000000000D+00
     .240000000000D+01  .000000000000D+00  .372529029846D-08  .130000000000D+02
     .792060000000D+05  .400000000000D+01
31 18  2 12  0  0  0.0  .142373610288D-03 -.261479726760D-11  .000000000000D+00
     .106000000000D+03  .109687500000D+02  .444161358246D-08 -.178390931571D+01
     .331550836563D-06  .884059304371D-02  .101942569017D-04  .515360950851D+04
     .864000000000D+05 -.633299350739D-07  .229979291542D+01 -.152736902237D-06
     .964185555570D+00  .187093750000D+03 -.155992202661D+00 -.789104297933D-08
    -.268225458381D-09  .100000000000D+01  .198800000000D+04  .000000000000D+00
     .340000000000D+01  .000000000000D+00 -.135041773319D-07  .106000000000D+03
     .792060000000D+05  .400000000000D+01
32 18  2 12  0  0  0.0 -.532409641892D-03  .795807864051D-12  .000000000000D+00
     .105000000000D+03  .253125000000D+01  .493556272886D-08  .209646729464D+01
     .216066837311D-06  .167027255520D-02  .525824725628D-05  .515362656784D+04
     .864000000000D+05 -.819563865662D-07  .121375930528D+01  .149011611938D-07
     .956972932027D+00  .272093750000D+03 -.269480256944D+01 -.822712840721D-08
     .614311302817D-10  .100000000000D+01  .198800000000D+04  .000000000000D+00
     .340000000000D+01  .000000000000D+00  .465661287308D-09  .105000000000D+03
     .792060000000D+05  .400000000000D+01
32 18  2 11 23 59 44.0 -.532411038876D-03  .795807864051D-12  .000000000000D+00
     .160000000000D+02  .253125000000D+01  .493556272886D-08  .209413233549D+01
     .216066837311D-06  .167027127463D-02  .525824725628D-05  .515362656593D+04
     .863840000000D+05 -.819563865662D-07  .121375944572D+01  .149011611938D-07
     .956972940804D+00  .272093750000D+03 -.269480141227D+01 -.822712840721D-08
     .614311302817D-10  .100000000000D+01  .198800000000D+04  .000000000000D+00
     .240000000000D+01  .000000000000D+00  .465661287308D-09  .160000000000D+02
     .806160000000D+05  .400000000000D+01
12 18  2 11 23 59 44.0  .350779388100D-03 -.193267624127D-11  .000000000000D+00
     .150000000000D+02  .104968750000D+03  .398945189097D-08 -.216395285111D+01
     .543519854546D-05  .693728704937D-02  .669062137604D-05  .515364860725D+04
     .863840000000D+05  .111758708954D-06 -.290575148120D+01 -.502914190292D-07
     .987793339020D+00  .265812500000D+03  .919486494498D+00 -.777175229611D-08
     .291440711104D-09  .100000000000D+01  .198800000000D+04  .000000000000D+00
     .240000000000D+01  .000000000000D+00 -.125728547573D-07  .150000000000D+02
     .808860000000D+05  .400000000000D+01
